STARLINK-3321           
1 50803U 22001A   22031.25001157 -.00090494  00000+0 -64593-3 0  9997
2 50803  53.2149  78.5488 0001852  36.3225 328.6245 15.73247544  5130
STARLINK-3323           
1 50804U 22001B   22031.16667824  .00043308  00000+0  31148-3 0  9997
2 50804  53.2156  78.9600 0002013  32.7580 220.6113 15.73193187  5108
STARLINK-3333           
1 50805U 22001C   22031.25001157 -.00100673  00000+0 -71946-3 0  9990
2 50805  53.2155  78.5474 0001618  32.3384 333.8838 15.73264435  5141
STARLINK-3335           
1 50806U 22001D   22030.91667824 -.00005034  00000+0 -31488-4 0  9995
2 50806  53.2143  80.1922 0001803  37.7501 240.2173 15.73180107  3731
STARLINK-3353           
1 50807U 22001E   22030.91667824 -.00037257  00000+0 -26231-3 0  9997
2 50807  53.2152  80.1889 0001461  37.6436 242.8648 15.73190796  5080
STARLINK-3355           
1 50808U 22001F   22031.25001157  .00160518  00000+0  11308-2 0  9990
2 50808  53.2174  78.5428 0001919  19.1402 348.8071 15.73108128  5121
STARLINK-3232           
1 50809U 22001G   22031.25001157 -.00096517  00000+0 -68951-3 0  9997
2 50809  53.2153  78.5434 0001584  35.6516 331.8490 15.73255313  5152
STARLINK-3348           
1 50810U 22001H   22031.25001157  .00151409  00000+0  10678-2 0  9991
2 50810  53.2175  78.5412 0001807  44.7871 323.7965 15.73113507  5129
STARLINK-3347           
1 50811U 22001J   22031.25001157  .00138193  00000+0  97619-3 0  9998
2 50811  53.2173  78.5388 0001907  42.4367 327.4205 15.73121331  5151
STARLINK-3338           
1 50812U 22001K   22030.91667824  .00023385  00000+0  17091-3 0  9992
2 50812  53.2154  80.1854 0001935  23.3326 259.0913 15.73153356  3732
STARLINK-3349           
1 50813U 22001L   22031.25001157  .00147422  00000+0  10402-2 0  9999
2 50813  53.2173  78.5374 0001597  35.2470 335.2514 15.73115942  5126
STARLINK-3324           
1 50814U 22001M   22030.91667824 -.00042247  00000+0 -29817-3 0  9993
2 50814  53.2146  80.1781 0001472  34.9394 250.0415 15.73194316  3732
STARLINK-3234           
1 50815U 22001N   22031.12086339  .00015352  00000+0  11355-3 0  9997
2 50815  53.2144  79.1737 0001905  26.3083 333.8034 15.73211109  5112
STARLINK-3342           
1 50816U 22001P   22030.86584791  .00017334  00000+0  12761-3 0  9997
2 50816  53.2152  80.4243 0001921  45.5802 314.5375 15.73210013  5082
STARLINK-3341           
1 50817U 22001Q   22031.12075015  .00022718  00000+0  16575-3 0  9991
2 50817  53.2145  79.1721 0001814  35.5166 324.5975 15.73213220  5095
STARLINK-3336           
1 50818U 22001R   22031.12018806  .00009883  00000+0  74744-4 0  9998
2 50818  53.2155  79.1672 0002109  36.1749 323.9413 15.73202988  5127
STARLINK-3327           
1 50819U 22001S   22031.12037388  .00018450  00000+0  13705-3 0  9994
2 50819  53.2140  79.1673 0001839  29.2400 330.8723 15.72946265  5043
STARLINK-3339           
1 50820U 22001T   22031.11984919  .00011499  00000+0  86220-4 0  9995
2 50820  53.2140  79.1650 0001809  18.1150 341.9934 15.73205453  5120
STARLINK-3346           
1 50821U 22001U   22031.11939869  .00014830  00000+0  10983-3 0  9994
2 50821  53.2149  79.1634 0002241  45.1999 314.9204 15.73213825  5092
STARLINK-3343           
1 50822U 22001V   22030.86551179 -.00009823  00000+0 -65641-4 0  9990
2 50822  53.2161  80.4202 0002112  33.2431 326.8722 15.73198828  3819
STARLINK-3334           
1 50823U 22001W   22030.86652191  .00007173  00000+0  55442-4 0  9999
2 50823  53.2144  80.4275 0001910  24.2522 335.8588 15.73219395  5081
STARLINK-3340           
1 50824U 22001X   22031.11951094  .00018074  00000+0  13280-3 0  9998
2 50824  53.2163  79.1624 0001897  31.8992 328.2142 15.73220719  5113
STARLINK-3332           
1 50825U 22001Y   22030.86562103  .00003774  00000+0  31292-4 0  9994
2 50825  53.2147  80.4219 0002253  37.6966 322.4212 15.73211826  3811
STARLINK-3337           
1 50826U 22001Z   22031.11906257 -.00015947  00000+0 -10948-3 0  9997
2 50826  53.2140  79.1586 0001948  26.2303 333.8815 15.73183783  5127
STARLINK-3329           
1 50827U 22001AA  22031.12007113  .00018779  00000+0  13784-3 0  9997
2 50827  53.2143  79.1662 0002030  48.6461 311.4733 15.73213159  5113
STARLINK-3290           
1 50828U 22001AB  22031.11883049 -.00001669  00000+0 -74719-5 0  9996
2 50828  53.2159  79.1575 0001654  47.3750 312.7410 15.73207381  5130
STARLINK-3294           
1 50829U 22001AC  22031.12028924  .00011048  00000+0  82917-4 0  9999
2 50829  53.2145  79.1672 0001941  37.0749 323.0405 15.73234143  5110
STARLINK-3278           
1 50830U 22001AD  22031.11872290  .00024603  00000+0  17910-3 0  9994
2 50830  53.2155  79.1563 0001721  33.4750 326.6378 15.73213077  5111
STARLINK-3299           
1 50831U 22001AE  22030.86483264  .00009396  00000+0  71251-4 0  9996
2 50831  53.2142  80.4161 0002170  32.6559 327.4595 15.73213001  5076
STARLINK-3328           
1 50832U 22001AF  22031.11860467  .00014210  00000+0  10541-3 0  9995
2 50832  53.2166  79.1573 0002073  18.0849 342.0245 15.73218885  5099
STARLINK-3316           
1 50833U 22001AG  22030.86506199  .00004303  00000+0  35061-4 0  9993
2 50833  53.2149  80.4194 0001840  28.9759 331.1363 15.73201652  3818
STARLINK-3331           
1 50834U 22001AH  22031.11826150 -.00005276  00000+0 -33181-4 0  9998
2 50834  53.2141  79.1522 0002007  28.4706 331.6424 15.73204787  5125
STARLINK-3310           
1 50835U 22001AJ  22031.11803981 -.00005278  00000+0 -33188-4 0  9995
2 50835  53.2146  79.1537 0002040  24.6528 335.4589 15.73207066  5109
STARLINK-3330           
1 50836U 22001AK  22031.11838407  .00027262  00000+0  19778-3 0  9990
2 50836  53.2140  79.1533 0002147  38.1046 322.0126 15.73228800  5099
STARLINK-3318           
1 50837U 22001AL  22031.11927707  .00017467  00000+0  12847-3 0  9999
2 50837  53.2152  79.1610 0002010  41.2709 318.8463 15.73225496  5049
STARLINK-3322           
1 50838U 22001AM  22031.11736703 -.00001000  00000+0 -27056-5 0  9992
2 50838  53.2159  79.1462 0001569  38.7962 321.3171 15.73206959  5040
STARLINK-3320           
1 50839U 22001AN  22031.11770491 -.00009239  00000+0 -61482-4 0  9997
2 50839  53.2153  79.1484 0001755  36.3391 323.7748 15.73197590  5110
STARLINK-3295           
1 50840U 22001AP  22031.11759474  .00008460  00000+0  64570-4 0  9991
2 50840  53.2145  79.1480 0002936  60.5733 299.5580 15.73225951  5128
STARLINK-3300           
1 50841U 22001AQ  22030.86382444  .00015511  00000+0  11464-3 0  9990
2 50841  53.2137  80.4081 0001901  28.1854 331.9269 15.73218373  3816
STARLINK-3302           
1 50842U 22001AR  22031.11748002  .00008065  00000+0  61771-4 0  9999
2 50842  53.2147  79.1460 0001857  34.2210 325.8930 15.73221431  5120
STARLINK-3325           
1 50843U 22001AS  22031.11816083  .00014037  00000+0  10428-3 0  9993
2 50843  53.2161  79.1527 0001873  19.1799 340.9291 15.73196738  5043
STARLINK-3326           
1 50844U 22001AT  22031.11714316  .00022144  00000+0  16171-3 0  9999
2 50844  53.2153  79.1449 0002754  46.9314 313.1936 15.73208749  5121
STARLINK-3230           
1 50845U 22001AU  22031.11848831 -.00001104  00000+0 -34347-5 0  9992
2 50845  53.2136  79.1538 0002154  25.6227 334.4899 15.73208940  5085
STARLINK-3308           
1 50846U 22001AV  22031.11702641  .00010125  00000+0  76455-4 0  9997
2 50846  53.2149  79.1432 0001930  30.3658 329.7474 15.73206188  5139
STARLINK-3319           
1 50847U 22001AW  22030.86370581  .00002850  00000+0  24703-4 0  9998
2 50847  53.2148  80.4093 0001964  34.4164 325.6983 15.73219290  3812
STARLINK-3315           
1 50848U 22001AX  22030.86279780  .00004103  00000+0  33613-4 0  9991
2 50848  53.2139  80.4009 0001873  24.3565 335.7544 15.73219276  3811
STARLINK-3311           
1 50849U 22001AY  22031.11725274 -.00007752  00000+0 -50869-4 0  9992
2 50849  53.2154  79.1455 0001644  34.7872 325.3256 15.73197264  5045
STARLINK-3312           
1 50850U 22001AZ  22031.11669101  .00045684  00000+0  32963-3 0  9998
2 50850  53.2155  79.1415 0002127  22.0056 338.1055 15.73093064  5126
STARLINK-3314           
1 50851U 22001BA  22031.11680408 -.00008324  00000+0 -54936-4 0  9999
2 50851  53.2156  79.1430 0001791  36.0986 324.0154 15.73202270  5134
2022-002A               
1 50984U 22002A   22030.93715104  .00009478  00000+0  52594-3 0  9994
2 50984  97.5040 100.3562 0015136 166.9318 193.2309 15.13869201  2623
2022-002B               
1 50985U 22002B   22030.93778970  .00009319  00000+0  51798-3 0  9994
2 50985  97.5084 100.3671 0015422 169.6521 190.5031 15.13809715  2623
2022-002C               
1 50986U 22002C   22030.88552081  .00008551  00000+0  49299-3 0  9992
2 50986  97.5054 100.2745 0010875 173.2128 186.9252 15.12574308  2612
FOSSASAT-2E4            
1 50987U 22002D   22030.93793496  .00011534  00000+0  63982-3 0  9996
2 50987  97.5084 100.3665 0015239 169.9876 190.1662 15.13824741  2622
2022-002E               
1 50988U 22002E   22030.88596927  .00004235  00000+0  24689-3 0  9992
2 50988  97.5006 100.2614 0010320 170.5296 189.6131 15.12472885  2610
2022-002F               
1 50989U 22002F   22030.88652531  .00004199  00000+0  24517-3 0  9996
2 50989  97.5020 100.2628 0010409 169.4603 190.6848 15.12423911  2612
2022-002G               
1 50990U 22002G   22030.93781349  .00008631  00000+0  48015-3 0  9998
2 50990  97.5047 100.3563 0015152 165.8500 194.3159 15.13804403  2625
FOSSASAT-2E6            
1 50991U 22002H   22030.93961709  .00009776  00000+0  54571-3 0  9994
2 50991  97.5096 100.3682 0014909 171.5783 188.5701 15.13650528  2623
FLOCK 4X-8              
1 50992U 22002J   22030.88191828  .00002760  00000+0  16068-3 0  9991
2 50992  97.5065 100.2873 0011994 179.2208 180.9043 15.12809052  2610
ION SCV-004             
1 50993U 22002K   22030.88577528  .00008027  00000+0  46476-3 0  9995
2 50993  97.5056 100.2741 0011160 172.0445 188.0965 15.12435679  2616
